NORAD_CAT_ID,OBJECT_NAME,OBJECT_TYPE,EPOCH,MEAN_MOTION,ECCENTRICITY,INCLINATION,RA_OF_ASC_NODE,ARG_OF_PERICENTER,MEAN_ANOMALY,BSTAR,MEAN_MOTION_DOT,MEAN_MOTION_DDOT,TLE_LINE0,TLE_LINE1,TLE_LINE2,SEMIMAJOR_AXIS,PERIOD,APOGEE,PERIGEE,DECAYED
50157.0,STARLINK-3313,PAYLOAD,2023-01-24 02:54:47,15.0884298,0.0001529,53.2167,339.3367,89.10799999999999,271.0088,0.0012181,0.00019153,0.0,0 STARLINK-3313,1 50157U 21125B   23024.12137951  .00019153  00000-0  12181-2 0  9993,2 50157  53.2167 339.3367 0001529  89.1080 271.0088 15.08842980 61188,6917.871,95.437,540.794,538.679,0.0
50157.0,STARLINK-3313,PAYLOAD,2023-01-25 02:45:34,15.08844661,0.0001506,53.2178,334.8737,107.0378,253.0779,0.00055149,8.501e-05,0.0,0 STARLINK-3313,1 50157U 21125B   23025.11498024  .00008501  00000-0  55149-3 0  9991,2 50157  53.2178 334.8737 0001506 107.0378 253.0779 15.08844661 61338,6917.866,95.437,540.773,538.689,0.0
50157.0,STARLINK-3313,PAYLOAD,2023-01-25 13:53:16,15.08841425,0.0001344,53.2172,332.7939,91.3884,268.7262,0.00046245,7.08e-05,0.0,0 STARLINK-3313,1 50157U 21125B   23025.57866236  .00007080  00000-0  46245-3 0  9993,2 50157  53.2172 332.7939 0001344  91.3884 268.7262 15.08841425 61403,6917.876,95.437,540.6709999999999,538.811,0.0
50157.0,STARLINK-3313,PAYLOAD,2023-01-26 02:36:21,15.08847298,0.0001267,53.2173,330.415,91.4577,268.656,0.00048307,7.41e-05,0.0,0 STARLINK-3313,1 50157U 21125B   23026.10858030  .00007410  00000-0  48307-3 0  9994,2 50157  53.2173 330.4150 0001267  91.4577 268.6560 15.08847298 64618,6917.858,95.437,540.6,538.847,0.0
50157.0,STARLINK-3313,PAYLOAD,2023-01-27 02:27:08,15.08849567,0.0001385999999999,53.2171,325.955,83.2627,276.8523,0.00046686,7.152e-05,0.0,0 STARLINK-3313,1 50157U 21125B   23027.10218115  .00007152  00000-0  46686-3 0  9990,2 50157  53.2171 325.9550 0001386  83.2627 276.8523 15.08849567 61636,6917.851,95.437,540.675,538.757,0.0
50157.0,STARLINK-3313,PAYLOAD,2023-01-27 05:37:54,15.08851763,0.0001401,53.2171,325.3588,82.686,277.4292,0.00059276,9.161e-05,0.0,0 STARLINK-3313,1 50157U 21125B   23027.23465992  .00009161  00000-0  59276-3 0  9992,2 50157  53.2171 325.3588 0001401  82.6860 277.4292 15.08851763 64781,6917.844,95.437,540.679,538.74,0.0
50157.0,STARLINK-3313,PAYLOAD,2023-01-28 02:17:55,15.08845406,0.0001296999999999,53.216,321.4929,76.0055,284.1081,0.0004885,7.496e-05,0.0,0 STARLINK-3313,1 50157U 21125B   23028.09578229  .00007496  00000-0  48850-3 0  9990,2 50157  53.2160 321.4929 0001297  76.0055 284.1081 15.08845406 61786,6917.8640000000005,95.437,540.626,538.832,0.0
50157.0,STARLINK-3313,PAYLOAD,2023-01-28 05:28:41,15.08849029,0.0001324,53.2164,320.8993,79.9137,280.2004,0.00068154,0.00010578,0.0,0 STARLINK-3313,1 50157U 21125B   23028.22826127  .00010578  00000-0  68154-3 0  9992,2 50157  53.2164 320.8993 0001324  79.9137 280.2004 15.08849029 64935,6917.853,95.437,540.634,538.802,0.0
50157.0,STARLINK-3313,PAYLOAD,2023-01-29 02:08:42,15.08853903,0.0001195,53.2155,317.0326,72.8816,287.2307,0.0006122,9.472e-05,0.0,0 STARLINK-3313,1 50157U 21125B   23029.08937813  .00009472  00000-0  61220-3 0  9990,2 50157  53.2155 317.0326 0001195  72.8816 287.2307 15.08853903 61931,6917.838,95.437,540.53,538.876,0.0
50157.0,STARLINK-3313,PAYLOAD,2023-01-29 19:37:57,15.08836966,0.000133,53.2156,313.7609,80.5203,279.594,0.00062828,9.724e-05,0.0,0 STARLINK-3313,1 50157U 21125B   23029.81802089  .00009724  00000-0  62828-3 0  9992,2 50157  53.2156 313.7609 0001330  80.5203 279.5940 15.08836966 65173,6917.89,95.438,540.675,538.835,0.0
50157.0,STARLINK-3313,PAYLOAD,2023-01-30 03:34:52,15.08841404,0.0001315,53.2152,312.2746,74.1582,285.9555,0.000188,2.705e-05,0.0,0 STARLINK-3313,1 50157U 21125B   23030.14922093  .00002705  00000-0  18800-3 0  9991,2 50157  53.2152 312.2746 0001315  74.1582 285.9555 15.08841404 62091,6917.876,95.437,540.651,538.831,0.0
50157.0,STARLINK-3313,PAYLOAD,2023-01-31 05:01:02,15.08850859,0.0001331,53.216,307.5179,73.9395,286.1744,0.00037796,5.734e-05,0.0,0 STARLINK-3313,1 50157U 21125B   23031.20905951  .00005734  00000-0  37796-3 0  9993,2 50157  53.2160 307.5179 0001331  73.9395 286.1744 15.08850859 62259,6917.847,95.437,540.633,538.791,0.0
50157.0,STARLINK-3313,PAYLOAD,2023-02-01 03:16:26,15.08853646,0.0001473,53.2165,303.3533,78.3454,281.7703,0.00034889,5.271e-05,0.0,0 STARLINK-3313,1 50157U 21125B   23032.13641640  .00005271  00000-0  34889-3 0  9994,2 50157  53.2165 303.3533 0001473  78.3454 281.7703 15.08853646 62392,6917.839,95.437,540.723,538.685,0.0
50157.0,STARLINK-3313,PAYLOAD,2023-02-02 03:07:13,15.08841122,0.000169,53.2165,298.8932,78.7199,281.3983,5.6937e-05,6.18e-06,0.0,0 STARLINK-3313,1 50157U 21125B   23033.13002218  .00000618  00000-0  56937-4 0  9996,2 50157  53.2165 298.8932 0001690  78.7199 281.3983 15.08841122 62543,6917.877,95.437,540.911,538.573,0.0
50157.0,STARLINK-3313,PAYLOAD,2023-02-03 02:58:00,15.08853776,0.0001348,53.2161,294.4338,78.4983,281.6161,0.00027926,4.161e-05,0.0,0 STARLINK-3313,1 50157U 21125B   23034.12361401  .00004161  00000-0  27926-3 0  9990,2 50157  53.2161 294.4338 0001348  78.4983 281.6161 15.08853776 62694,6917.838,95.437,540.636,538.771,0.0
50157.0,STARLINK-3313,PAYLOAD,2023-02-03 17:16:29,15.08836927,0.000133,53.2141,291.7581,78.7267,281.3875,8.7129e-05,1.099e-05,0.0,0 STARLINK-3313,1 50157U 21125B   23034.71978577  .00001099  00000-0  87129-4 0  9992,2 50157  53.2141 291.7581 0001330  78.7267 281.3875 15.08836927 62789,6917.89,95.438,540.675,538.835,0.0
50157.0,STARLINK-3313,PAYLOAD,2023-02-04 21:53:25,15.08845055,0.00013,53.2145,286.4051,86.6961,273.418,0.00016753,2.38e-05,0.0,0 STARLINK-3313,1 50157U 21125B   23035.91210391  .00002380  00000-0  16753-3 0  9996,2 50157  53.2145 286.4051 0001300  86.6961 273.4180 15.08845055 66093,6917.865,95.437,540.629,538.831,0.0
50157.0,STARLINK-3313,PAYLOAD,2023-02-05 02:39:35,15.08848799,0.0001334,53.2143,285.5139,84.2303,275.8842,0.00025953,3.846e-05,0.0,0 STARLINK-3313,1 50157U 21125B   23036.11082252  .00003846  00000-0  25953-3 0  9992,2 50157  53.2143 285.5139 0001334  84.2303 275.8842 15.08848799 62993,6917.853,95.437,540.641,538.796,0.0
50157.0,STARLINK-3313,PAYLOAD,2023-02-05 21:44:12,15.08861278,0.0001341,53.2141,281.9452,93.2319,266.8827,0.00046509,7.126e-05,0.0,0 STARLINK-3313,1 50157U 21125B   23036.90569453  .00007126  00000-0  46509-3 0  9997,2 50157  53.2141 281.9452 0001341  93.2319 266.8827 15.08861278 66246,6917.815,95.436,540.608,538.753,0.0
50157.0,STARLINK-3313,PAYLOAD,2023-02-06 00:54:57,15.08873617,0.0001155,53.2139,281.3504,86.9098,273.2026,0.0007811,0.00012176,0.0,0 STARLINK-3313,1 50157U 21125B   23037.03817018  .00012176  00000-0  78110-3 0  9999,2 50157  53.2139 281.3504 0001155  86.9098 273.2026 15.08873617 63139,6917.778,95.435,540.442,538.844,0.0
50157.0,STARLINK-3313,PAYLOAD,2023-02-06 16:48:49,15.08840592,0.0001123,53.2137,278.3773,92.6117,267.5004,-8.0902e-05,-1.575e-05,0.0,0 STARLINK-3313,1 50157U 21125B   23037.70057556 -.00001575  00000-0 -80902-4 0  9992,2 50157  53.2137 278.3773 0001123  92.6117 267.5004 15.08840592 63231,6917.879,95.438,540.52,538.967,0.0
50157.0,STARLINK-3313,PAYLOAD,2023-02-06 21:34:59,15.08838249,9.18e-05,53.2144,277.4845,102.7654,257.3441,-8.0679e-05,-1.571e-05,0.0,0 STARLINK-3313,1 50157U 21125B   23037.89929741 -.00001571  00000-0 -80679-4 0  9993,2 50157  53.2144 277.4845 0000918 102.7654 257.3441 15.08838249 66397,6917.886,95.438,540.386,539.116,0.0
50157.0,STARLINK-3313,PAYLOAD,2023-02-07 00:45:45,15.08839509,0.0001048,53.2146,276.8895,100.5531,259.558,-4.5451e-05,-1.011e-05,0.0,0 STARLINK-3313,1 50157U 21125B   23038.03177851 -.00001011  00000-0 -45451-4 0  9995,2 50157  53.2146 276.8895 0001048 100.5531 259.5580 15.08839509 66413,6917.882,95.438,540.472,539.022,0.0
50157.0,STARLINK-3313,PAYLOAD,2023-02-07 19:50:23,15.08834348,9.94e-05,53.2135,273.3214,102.4715,257.6388,7.8269e-05,9.58e-06,0.0,0 STARLINK-3313,1 50157U 21125B   23038.82666471  .00000958  00000-0  78269-4 0  9993,2 50157  53.2135 273.3214 0000994 102.4715 257.6388 15.08834348 63409,6917.898,95.438,540.45,539.075,0.0
50157.0,STARLINK-3313,PAYLOAD,2023-02-07 21:25:47,15.08834237,9.95e-05,53.2136,273.024,102.6813,257.429,0.00010685,1.413e-05,0.0,0 STARLINK-3313,1 50157U 21125B   23038.89290528  .00001413  00000-0  10685-3 0  9990,2 50157  53.2136 273.0240 0000995 102.6813 257.4290 15.08834237 66543,6917.898,95.438,540.451,539.075,0.0
50157.0,STARLINK-3313,PAYLOAD,2023-02-08 03:47:19,15.08845663,9.49e-05,53.2133,271.8344,101.8882,258.2216,0.00045206,6.915e-05,0.0,0 STARLINK-3313,1 50157U 21125B   23039.15786319  .00006915  00000-0  45206-3 0  9997,2 50157  53.2133 271.8344 0000949 101.8882 258.2216 15.08845663 63456,6917.863,95.437,540.385,539.072,0.0
50157.0,STARLINK-3313,PAYLOAD,2023-02-08 19:41:11,15.0883424,9.79e-05,53.2138,268.8604,74.4142,285.6958,0.0002417,3.56e-05,0.0,0 STARLINK-3313,1 50157U 21125B   23039.82027266  .00003560  00000-0  24170-3 0  9990,2 50157  53.2138 268.8604 0000979  74.4142 285.6958 15.08834240 63550,6917.898,95.438,540.44,539.086,0.0
50157.0,STARLINK-3313,PAYLOAD,2023-02-08 21:16:34,15.08837106,9.77e-05,53.2133,268.5626,92.1484,267.962,0.00032259,4.85e-05,0.0,0 STARLINK-3313,1 50157U 21125B   23039.88651150  .00004850  00000-0  32259-3 0  9991,2 50157  53.2133 268.5626 0000977  92.1484 267.9620 15.08837106 66691,6917.889,95.438,540.43,539.078,0.0
50157.0,STARLINK-3313,PAYLOAD,2023-02-08 22:51:57,15.08839983,0.0001049,53.2131,268.2651,91.8192,268.292,0.00040858,6.221e-05,0.0,0 STARLINK-3313,1 50157U 21125B   23039.95275113  .00006221  00000-0  40858-3 0  9998,2 50157  53.2131 268.2651 0001049  91.8192 268.2920 15.08839983 66701,6917.88,95.438,540.471,539.02,0.0
50157.0,STARLINK-3313,PAYLOAD,2023-02-09 21:07:22,15.08838392,0.0001184,53.2131,264.1022,81.1303,278.9823,0.00049418,7.585e-05,0.0,0 STARLINK-3313,1 50157U 21125B   23040.88011744  .00007585  00000-0  49418-3 0  9995,2 50157  53.2131 264.1022 0001184  81.1303 278.9823 15.08838392 63715,6917.885,95.438,540.569,538.931,0.0
